{"type":"FeatureCollection","name":"ENVENG_SubLeaseBoundariesMar2025_Ply","source":"https://services-ap1.arcgis.com/oOhFjgN0cUEZBHqy/arcgis/rest/services/PR25_BDY_LeaseBoundaries/FeatureServer/0","geometryType":"esriGeometryPolygon","features":[{"type":"Feature","id":1,"geometry":{"type":"Polygon","coordinates":[[[116.768164725048,-20.6223019831705],[116.768434979637,-20.6224526628723],[116.768376918789,-20.6228916609764],[116.768093848397,-20.6228403878844],[116.768164725048,-20.6223019831705]]]},"properties":{"FID":1,"Lease":"Section 41","Owner":"DBNGP","Area":1635.31682474,"Notes":" ","Shape__Area":1634.033447265625,"Shape__Length":171.75729529817139}},{"type":"Feature","id":2,"geometry":{"type":"Polygon","coordinates":[[[116.749502469513,-20.6194637334798],[116.749492833194,-20.6194896419418],[116.749406057237,-20.6194423925709],[116.749405663119,-20.6194421778466],[116.749405691068,-20.6194421074065],[116.749415782899,-20.6194164399669],[116.749435921945,-20.6193647964422],[116.749521750298,-20.6194116237997],[116.749502469513,-20.6194637334798]]]},"properties":{"FID":2,"Lease":"Yara Sub-Lease","Owner":"Yara","Area":93.6455020991,"Notes":" ","Shape__Area":93.579833984375,"Shape__Length":39.09973929424655}},{"type":"Feature","id":3,"geometry":{"type":"Polygon","coordinates":[[[116.749406057237,-20.6194423925709],[116.74937892596,-20.6195111821218],[116.748628695289,-20.6191019913056],[116.748667246729,-20.6190393376491],[116.749405691068,-20.6194421074065],[116.749406085185,-20.6194423221308],[116.749406057237,-20.6194423925709]]]},"properties":{"FID":3,"Lease":"Common User Track","Owner":"Development WA","Area":718.92862045,"Notes":" ","Shape__Area":718.364990234375,"Shape__Length":195.44540562969286}},{"type":"Feature","id":4,"geometry":{"type":"Polygon","coordinates":[[[116.755155575927,-20.6161226616076],[116.751156499822,-20.6204765350282],[116.751098947353,-20.6204493170828],[116.74937892596,-20.6195111821218],[116.749406057237,-20.6194423925709],[116.749406085185,-20.6194423221308],[116.749492833194,-20.6194896419418],[116.750911630839,-20.6202634751821],[116.750975064276,-20.6202980750273],[116.751075451302,-20.6203256167651],[116.751178435093,-20.6203085334596],[116.751262779411,-20.6202503547168],[116.755078523996,-20.6160960480693],[116.755097447649,-20.6161025844119],[116.755136658024,-20.6161161270865],[116.755155575927,-20.6161226616076]]]},"properties":{"FID":4,"Lease":"CV01","Owner":"Development WA","Area":6847.30876883,"Notes":" ","Shape__Area":6841.945068359375,"Shape__Length":1696.9301813955549}},{"type":"Feature","id":5,"geometry":{"type":"Polygon","coordinates":[[[116.749553929646,-20.6193248066202],[116.749521750298,-20.6194116237997],[116.749435921945,-20.6193647964422],[116.749469438998,-20.6192787271384],[116.749553929646,-20.6193248066202]]]},"properties":{"FID":5,"Lease":"CV00","Owner":"Development WA","Area":102.557272604,"Notes":" ","Shape__Area":102.485595703125,"Shape__Length":40.83173855506067}},{"type":"Feature","id":6,"geometry":{"type":"Polygon","coordinates":[[[116.755078523996,-20.6160960480693],[116.751262779411,-20.6202503547168],[116.751178435093,-20.6203085334596],[116.751075451302,-20.6203256167651],[116.750975064276,-20.6202980750273],[116.750911630839,-20.6202634751821],[116.750964516712,-20.6202505666965],[116.75099027367,-20.6202646095884],[116.751077603835,-20.6202885723321],[116.75116297081,-20.6202744184249],[116.751236601521,-20.6202236337738],[116.755026819209,-20.6160970952545],[116.755040000438,-20.6160827421943],[116.755078523996,-20.6160960480693]]]},"properties":{"FID":6,"Lease":"Common User Track","Owner":"Development WA","Area":2571.12591845,"Notes":" ","Shape__Area":2569.1044921875,"Shape__Length":1295.0649802580865}},{"type":"Feature","id":7,"geometry":{"type":"Polygon","coordinates":[[[116.755155575927,-20.6161226616076],[116.755136658024,-20.6161161270865],[116.755097447649,-20.6161025844119],[116.755078523996,-20.6160960480693],[116.7555334538,-20.6156005656478],[116.755839354728,-20.615772057493],[116.756158107096,-20.616034849415],[116.75554944838,-20.6156936318692],[116.755155575927,-20.6161226616076]]]},"properties":{"FID":7,"Lease":"CV02","Owner":"Development WA","Area":985.032357699,"Notes":" ","Shape__Area":984.259765625,"Shape__Length":298.8417820108473}},{"type":"Feature","id":8,"geometry":{"type":"Polygon","coordinates":[[[116.755839354728,-20.615772057493],[116.7555334538,-20.6156005656478],[116.755078523996,-20.6160960480693],[116.755040000438,-20.6160827421943],[116.755053183589,-20.616068386425],[116.755525466108,-20.6155540370677],[116.755679961703,-20.6156406468307],[116.755695116464,-20.6156531415345],[116.755824153931,-20.6157595274964],[116.755839354728,-20.615772057493]]]},"properties":{"FID":8,"Lease":"Common User Track","Owner":"Development WA","Area":411.468055393,"Notes":" ","Shape__Area":411.14501953125,"Shape__Length":232.0071376630209}},{"type":"Feature","id":9,"geometry":{"type":"Polygon","coordinates":[[[116.757815890183,-20.6169645332522],[116.756158107096,-20.616034849415],[116.755839354728,-20.615772057493],[116.757867964548,-20.6169095770316],[116.757815890183,-20.6169645332522]]]},"properties":{"FID":9,"Lease":"CV03","Owner":"Development WA","Area":1788.84335727,"Notes":" ","Shape__Area":1787.444091796875,"Shape__Length":499.36133070702226}},{"type":"Feature","id":10,"geometry":{"type":"Polygon","coordinates":[[[116.755679961703,-20.6156406468307],[116.757893991622,-20.6168821097442],[116.757867964548,-20.6169095770316],[116.755839354728,-20.615772057493],[116.755679961703,-20.6156406468307]]]},"properties":{"FID":10,"Lease":"Common User Track","Owner":"Development WA","Area":1029.30110991,"Notes":" ","Shape__Area":1028.493408203125,"Shape__Length":540.6647331284587}},{"type":"Feature","id":11,"geometry":{"type":"Polygon","coordinates":[[[116.757815890183,-20.6169645332522],[116.757867964548,-20.6169095770316],[116.758369090725,-20.6171905115628],[116.758317061542,-20.6172454734181],[116.757815890183,-20.6169645332522]]]},"properties":{"FID":11,"Lease":"CV04","Owner":"Development WA","Area":486.591222713,"Notes":" ","Shape__Area":486.208251953125,"Shape__Length":137.8406211287149}},{"type":"Feature","id":12,"geometry":{"type":"Polygon","coordinates":[[[116.757893991622,-20.6168821097442],[116.758395109147,-20.61716302702],[116.758369090725,-20.6171905115628],[116.757867964548,-20.6169095770316],[116.757893991622,-20.6168821097442]]]},"properties":{"FID":12,"Lease":"Common User Track","Owner":"Development WA","Area":243.253477881,"Notes":" ","Shape__Area":243.061279296875,"Shape__Length":129.6844540699273}},{"type":"Feature","id":13,"geometry":{"type":"Polygon","coordinates":[[[116.758369090725,-20.6171905115628],[116.768118121727,-20.6226546748469],[116.768108098461,-20.6227333278197],[116.758317061542,-20.6172454734181],[116.758369090725,-20.6171905115628]]]},"properties":{"FID":13,"Lease":"CV05","Owner":"Development WA","Area":9492.807375,"Notes":" ","Shape__Area":9485.318115234375,"Shape__Length":2386.2796467244093}},{"type":"Feature","id":14,"geometry":{"type":"Polygon","coordinates":[[[116.758395109147,-20.61716302702],[116.768123202444,-20.6226156769109],[116.768118121727,-20.6226546748469],[116.758369090725,-20.6171905115628],[116.758395109147,-20.61716302702]]]},"properties":{"FID":14,"Lease":"Common User Track","Owner":"Development WA","Area":4715.14990746,"Notes":" ","Shape__Area":4711.440185546875,"Shape__Length":2370.160165013156}},{"type":"Feature","id":15,"geometry":{"type":"Polygon","coordinates":[[[116.769308510891,-20.6237374632779],[116.770630020343,-20.6279177787585],[116.770623751592,-20.628150397364],[116.769265035555,-20.6238533640767],[116.769308510891,-20.6237374632779]]]},"properties":{"FID":15,"Lease":"CV08","Owner":"Development WA","Area":3911.25713873,"Notes":" ","Shape__Area":3908.19873046875,"Shape__Length":1018.2076553317522}},{"type":"Feature","id":16,"geometry":{"type":"Polygon","coordinates":[[[116.76933024661,-20.6236795155819],[116.770633198456,-20.6277998181849],[116.770630020343,-20.6279177787585],[116.769308510891,-20.6237374632779],[116.76933024661,-20.6236795155819]]]},"properties":{"FID":16,"Lease":"Common User Track","Owner":"Development WA","Area":1928.4325126,"Notes":" ","Shape__Area":1926.890380859375,"Shape__Length":978.3095482188505}},{"type":"Feature","id":17,"geometry":{"type":"Polygon","coordinates":[[[116.769084012514,-20.6232802052719],[116.768381157686,-20.6228863092202],[116.768418468658,-20.6228230585073],[116.769149053486,-20.6232325279402],[116.769308510891,-20.6237374632779],[116.769265035555,-20.6238533640767],[116.769084012514,-20.6232802052719]]]},"properties":{"FID":17,"Lease":"CV07","Owner":"Development WA","Area":1194.10298045,"Notes":" ","Shape__Area":1193.1630859375,"Shape__Length":319.8909450937454}},{"type":"Feature","id":18,"geometry":{"type":"Polygon","coordinates":[[[116.768418468658,-20.6228230585073],[116.768437102961,-20.6227914692631],[116.769181549935,-20.6232087073048],[116.76933024661,-20.6236795155819],[116.769308510891,-20.6237374632779],[116.769149053486,-20.6232325279402],[116.768418468658,-20.6228230585073]]]},"properties":{"FID":18,"Lease":"Common User Track","Owner":"Development WA","Area":583.074400309,"Notes":" ","Shape__Area":582.616455078125,"Shape__Length":302.30901789520067}},{"type":"Feature","id":19,"geometry":{"type":"Polygon","coordinates":[[[116.768437102961,-20.6227914692631],[116.768377896558,-20.6228918384888],[116.768376918789,-20.6228916609764],[116.768393354256,-20.6227673794127],[116.768437102961,-20.6227914692631]]]},"properties":{"FID":19,"Lease":"CV06","Owner":"Development WA","Area":34.2820749544,"Notes":" ","Shape__Area":34.255615234375,"Shape__Length":31.950178357927456}},{"type":"Feature","id":20,"geometry":{"type":"Polygon","coordinates":[[[116.749593262198,-20.6190330772294],[116.749631638373,-20.6190421688161],[116.749535217752,-20.6193131086244],[116.749496856292,-20.6192949810533],[116.749593262198,-20.6190330772294]]]},"properties":{"FID":20,"Lease":"Conveyor Overhead Crossing","Owner":"Pilbara Ports Authority","Area":133.104222111,"Notes":" ","Shape__Area":132.99951171875,"Shape__Length":70.89374148265696}},{"type":"Feature","id":21,"geometry":{"type":"Polygon","coordinates":[[[116.778253916163,-20.6305507302303],[116.778259367588,-20.6267868911256],[116.778231227462,-20.6267868550054],[116.778231596464,-20.6265320857265],[116.77837419923,-20.6265322687198],[116.77836938441,-20.6307368471543],[116.770591160334,-20.6307266920446],[116.770566797372,-20.6306377004367],[116.769429943769,-20.6301259066862],[116.769421085595,-20.6300620149819],[116.770491180178,-20.6305424610239],[116.778253913454,-20.630552600676],[116.778253916163,-20.6305507302303]]]},"properties":{"FID":21,"Lease":"Gas Pipeline Lateral Easement","Owner":"Santos","Area":22796.6794585,"Notes":"Easement from Landgate Deposited Plan 51732 (20/09/2019)","Shape__Area":22778.759033203125,"Shape__Length":2819.2563017138073}},{"type":"Feature","id":22,"geometry":{"type":"Polygon","coordinates":[[[116.763177605377,-20.6237777779059],[116.763211933672,-20.623861046388],[116.762239916701,-20.6246161138963],[116.7615975201,-20.6249826318224],[116.761412872027,-20.6249697265595],[116.76097183886,-20.6244770172645],[116.760852096099,-20.6244503761313],[116.760864342222,-20.6243527140884],[116.76082074719,-20.6243653041232],[116.760666213185,-20.6243682527256],[116.760621467633,-20.6242572288484],[116.761033479891,-20.6240328935191],[116.761096384526,-20.6240090351482],[116.761157327251,-20.6240122819975],[116.761491685829,-20.6241602111502],[116.761791612768,-20.6241070415212],[116.761877283285,-20.62413300253],[116.761900577242,-20.6242136356204],[116.762416796167,-20.6240682343392],[116.762564154553,-20.6239883780686],[116.763177605377,-20.6237777779059]]]},"properties":{"FID":22,"Lease":"LA30","Owner":"Pilbara Ports Authority","Area":14281.8030749,"Notes":" ","Shape__Area":14270.59765625,"Shape__Length":661.5516464665517}},{"type":"Feature","id":23,"geometry":{"type":"Polygon","coordinates":[[[116.763006561471,-20.6280608708822],[116.762958751781,-20.6279433375238],[116.762212596028,-20.6263248712482],[116.762569368827,-20.6252681518095],[116.76215691564,-20.6250959008051],[116.763963313223,-20.6238333400397],[116.763943754983,-20.6240682489699],[116.764278991701,-20.624520505968],[116.764556252663,-20.625225690911],[116.764747715602,-20.6255512471936],[116.764862310686,-20.6259309145681],[116.76497730854,-20.626048538846],[116.763477841922,-20.6274380339896],[116.763506566956,-20.6274832532278],[116.763467922583,-20.6276458480073],[116.763390870978,-20.6278174261574],[116.763208279743,-20.6279617516926],[116.763006561471,-20.6280608708822]]]},"properties":{"FID":23,"Lease":"LA44","Owner":"Pilbara Ports Authority","Area":74543.0034534,"Notes":" ","Shape__Area":74484.50048828125,"Shape__Length":1198.8280905642878}},{"type":"Feature","id":24,"geometry":{"type":"MultiPolygon","coordinates":[[[[116.769237040157,-20.6315250723969],[116.769173529943,-20.6321765296452],[116.769068235667,-20.6328239560279],[116.768882629493,-20.6334547426142],[116.768656593092,-20.6340740009069],[116.768368301607,-20.6346682414844],[116.768206922492,-20.6349769930453],[116.767603881852,-20.6357570030428],[116.767411316558,-20.635960734576],[116.767154376595,-20.6357641667087],[116.767000910556,-20.6356558216882],[116.767032244226,-20.635610241317],[116.767189900791,-20.6357213027519],[116.767405493793,-20.6358856531368],[116.767560243694,-20.6357222533962],[116.768155836903,-20.6349472015314],[116.768314122161,-20.6346430542159],[116.768599797632,-20.634051700833],[116.768825114226,-20.6334369587372],[116.769010001723,-20.632811230497],[116.769115130228,-20.6321688631747],[116.769178711903,-20.6315223740272],[116.769162353063,-20.6308756885353],[116.769107688782,-20.6302811689332],[116.769132839861,-20.6302924948171],[116.769167957888,-20.6303083520078],[116.769220134865,-20.6308733269324],[116.769237040157,-20.6315250723969]]],[[[116.769822176353,-20.6219997963491],[116.769103929169,-20.6235369018833],[116.769025509399,-20.6237385300509],[116.768751264176,-20.6247940745088],[116.768602501935,-20.6252455825533],[116.768498030073,-20.6259266177727],[116.768516007906,-20.6263898220088],[116.768550512288,-20.6270205421014],[116.768592274964,-20.6272995723501],[116.768619191769,-20.6273997072401],[116.768665688412,-20.6274793602732],[116.768709685006,-20.6275372377403],[116.768746068488,-20.6276057647567],[116.768774317614,-20.6277142127028],[116.768914286888,-20.6286846668371],[116.768968335965,-20.6290048189791],[116.769065044803,-20.6294303669127],[116.769105034679,-20.629679219841],[116.769136615174,-20.629993831723],[116.769102683732,-20.629978518271],[116.769075949918,-20.6299665577481],[116.769047880552,-20.6296857388008],[116.769008361119,-20.6294400472762],[116.768911652159,-20.6290146809357],[116.768857289588,-20.6286924509851],[116.768717634003,-20.6277242553209],[116.768691666763,-20.6276244831598],[116.76866017698,-20.627565177583],[116.768616811696,-20.6275081132842],[116.768565105071,-20.6274195998006],[116.768535591085,-20.6273098859893],[116.768493044713,-20.62702552435],[116.768458466097,-20.6263920038966],[116.768440258329,-20.6259235584757],[116.768546169559,-20.6252334015848],[116.768695726659,-20.6247793645769],[116.768970370408,-20.6237226460626],[116.769050537176,-20.6235165040678],[116.769767521273,-20.621977770594],[116.769822176353,-20.6219997963491]]]]},"properties":{"FID":24,"Lease":"Bunbury Extension Pipeline","Owner":"DBNGP","Area":9958.52263853,"Notes":"Extension of DBNGP","Shape__Area":9950.69873046875,"Shape__Length":3298.5160293999234}},{"type":"Feature","id":25,"geometry":{"type":"Polygon","coordinates":[[[116.775708545939,-20.63081996923],[116.771075095396,-20.630814862031],[116.770617239636,-20.630814337759],[116.770590401313,-20.6307239829526],[116.770643894638,-20.6307240440492],[116.771075210314,-20.6307245375949],[116.772124868294,-20.630725695094],[116.772623631657,-20.6307262448232],[116.772789243977,-20.6307264266004],[116.774388211142,-20.6307281899115],[116.77458809297,-20.630728409299],[116.775708953757,-20.6307296451494],[116.775708545939,-20.63081996923]]]},"properties":{"FID":25,"Lease":"AGIG Pipeline Easement","Owner":"AGIG","Area":5321.087007,"Notes":"New gas tie-in and metering station","Shape__Area":5316.904052734375,"Shape__Length":1084.0732937322805}},{"type":"Feature","id":26,"geometry":{"type":"Polygon","coordinates":[[[116.748934587555,-20.6168544491373],[116.749069202358,-20.6168506435013],[116.750233780344,-20.6168184978771],[116.750329007408,-20.6168270660444],[116.750404324255,-20.6168338433893],[116.750961669972,-20.6168838402094],[116.750776318808,-20.6174454126255],[116.750998198882,-20.6177238592096],[116.750202460458,-20.6192863339242],[116.750131046322,-20.6192786675632],[116.749978515715,-20.6192450860995],[116.749965212713,-20.6192512655379],[116.749872863038,-20.6192218191643],[116.749660502387,-20.6191750667085],[116.749645072655,-20.6192140436642],[116.749622392741,-20.6192066446721],[116.74960662825,-20.6193135970405],[116.749593429531,-20.6193463866706],[116.749486448305,-20.6192880362698],[116.749457234747,-20.6192721023337],[116.749470117174,-20.6192390601514],[116.749535862632,-20.6191629007803],[116.749322188101,-20.619046439713],[116.74920264855,-20.6190080043016],[116.749183357137,-20.6189704426327],[116.749118002649,-20.6189349999012],[116.749363207247,-20.6182151109087],[116.749580647149,-20.6175346540612],[116.74969666144,-20.6174080011558],[116.74971082898,-20.617250302149],[116.749640736557,-20.6172126217669],[116.74960394754,-20.6171564260801],[116.749563262077,-20.6171024765069],[116.748934291378,-20.6170351684314],[116.748934587555,-20.6168544491373]]]},"properties":{"FID":26,"Lease":"Area 472","Owner":"Pilbara Ports Authority","Area":37106.9801329,"Notes":" ","Shape__Area":37077.922607421875,"Shape__Length":977.9901310156561}}]}