{"type":"FeatureCollection","name":"Proposal Development Envelope","source":"https://services-ap1.arcgis.com/oOhFjgN0cUEZBHqy/arcgis/rest/services/PR25_BDY_ProjectBoundaries/FeatureServer/3","geometryType":"esriGeometryPolygon","features":[{"type":"Feature","id":1,"geometry":{"type":"Polygon","coordinates":[[[116.748726705425,-20.61707945663],[116.748709330252,-20.6146649848617],[116.748996859657,-20.6146654026467],[116.74900362187,-20.6167076730629],[116.751405534554,-20.6169238544429],[116.750202404669,-20.6192864088423],[116.749707951061,-20.6192748041497],[116.749643256122,-20.6193735677181],[116.750925461922,-20.6200948945021],[116.755416973839,-20.6152658866578],[116.75550793372,-20.6152446569761],[116.75825792424,-20.6167780221511],[116.758895509943,-20.6160948321737],[116.759060809466,-20.6162050325193],[116.758482969174,-20.6169035051375],[116.768947304641,-20.6227383049811],[116.768852847886,-20.6229036050374],[116.769513069866,-20.6232564731372],[116.769690534384,-20.6233549282739],[116.771254188661,-20.6257406723321],[116.773025342784,-20.6245965553231],[116.773980409062,-20.6255384457861],[116.772852030095,-20.6262926926776],[116.772960310083,-20.627500225505],[116.774957343421,-20.627830676782],[116.77790003263,-20.6243656801951],[116.777890724726,-20.6303705902496],[116.776732131532,-20.6303702685896],[116.776728005385,-20.6331991471672],[116.778004254135,-20.6326609807704],[116.778136784514,-20.632633690702],[116.778138214724,-20.633003200131],[116.777245696767,-20.6333672912313],[116.777208317156,-20.6350326314592],[116.778145582259,-20.6350318067077],[116.778154425467,-20.6372044807494],[116.777677373689,-20.6375158127417],[116.770164255446,-20.6380435730119],[116.768843215679,-20.6367593012712],[116.769163915801,-20.6349325012481],[116.768537072306,-20.6346950759962],[116.768013244732,-20.6347671019421],[116.768412662875,-20.6339224316001],[116.768772794153,-20.6344266147827],[116.769033624875,-20.6345108962803],[116.769381707935,-20.6346509591551],[116.769893967924,-20.6348528863032],[116.769993840924,-20.6348887828378],[116.770095936541,-20.6349186254576],[116.770199843156,-20.6349422952395],[116.770305137597,-20.6349596949324],[116.770411394732,-20.634970753488],[116.770518184589,-20.634975427864],[116.77062507332,-20.6349736976039],[116.770731628956,-20.6349655702665],[116.77083741949,-20.6349510787119],[116.770942016717,-20.6349302811076],[116.771044996231,-20.6349032636382],[116.771145942232,-20.6348701332837],[116.77124444464,-20.6348310259476],[116.771340104862,-20.6347860983323],[116.771797012782,-20.634554132824],[116.771923244885,-20.6344935958612],[116.772052351,-20.6344386920133],[116.772504735528,-20.6342721445525],[116.772792191945,-20.6342013447299],[116.77373705506,-20.6339686210174],[116.775686731515,-20.6334883789056],[116.775696606124,-20.6303563263596],[116.771565046528,-20.6303710044463],[116.771564793354,-20.6305438832571],[116.77079906846,-20.6305428698301],[116.77052743606,-20.6304621133415],[116.769459231242,-20.6299610418001],[116.769250262751,-20.6299607627824],[116.769079567718,-20.6301949036727],[116.768911333809,-20.6303116521949],[116.768775165476,-20.6294763192764],[116.768909030958,-20.6295500106501],[116.76891803828,-20.6296904391652],[116.76909938215,-20.6296906816587],[116.769099593933,-20.6295502654749],[116.769382817077,-20.6295506438185],[116.770459865062,-20.629936908245],[116.770855416548,-20.6299374334069],[116.77060136528,-20.6289998866653],[116.770617126396,-20.6285555630457],[116.769806655387,-20.628325929682],[116.769367650184,-20.6282989138897],[116.768916756474,-20.6283769307243],[116.768640974514,-20.6284811702849],[116.7684285516,-20.627164148423],[116.768384074953,-20.6252156075572],[116.768979671224,-20.6232217276392],[116.758147532591,-20.617149947225],[116.757541627793,-20.6178659007721],[116.757376327617,-20.6177714432962],[116.757947434783,-20.6170377852665],[116.755549448378,-20.6156936327728],[116.751156502697,-20.6204765377431],[116.748927735514,-20.6193661638],[116.749593644407,-20.6174940796301],[116.748726705425,-20.61707945663]]]},"properties":{"OBJECTID":1,"Layer":"PROPOSAL DEVELOPMENT AREA","Area_ha":106.225085657,"Shape__Area":1060278.5239257812,"Shape__Length":15354.896909460449}}]}