{"type":"FeatureCollection","name":"ENVENG_SubLeaseBoundariesMar2025_Ply","crs_epsg":28350,"source":"https://services-ap1.arcgis.com/oOhFjgN0cUEZBHqy/arcgis/rest/services/PR25_BDY_LeaseBoundaries/FeatureServer/0","geometryType":"esriGeometryPolygon","features":[{"type":"Feature","id":1,"geometry":{"type":"Polygon","coordinates":[[[475844.47,7719633.6073],[475872.6512,7719616.9719],[475866.6711,7719568.38],[475837.1704,7719574.0123],[475844.47,7719633.6073]]]},"properties":{"FID":1,"Lease":"Section 41","Owner":"DBNGP","Area":1635.31682474,"Notes":" ","Shape__Area":1634.033447265625,"Shape__Length":171.75729529817139}},{"type":"Feature","id":2,"geometry":{"type":"Polygon","coordinates":[[[473899.59,7719944.83],[473898.5904,7719941.9612],[473889.5411,7719947.1763],[473889.5,7719947.2],[473889.5029,7719947.2078],[473890.55,7719950.05],[473892.639,7719955.7671],[473892.64,7719955.77],[473901.59,7719950.6],[473899.59,7719944.83]]]},"properties":{"FID":2,"Lease":"Yara Sub-Lease","Owner":"Yara","Area":93.6455020991,"Notes":" ","Shape__Area":93.579833984375,"Shape__Length":39.09973929424655}},{"type":"Feature","id":3,"geometry":{"type":"Polygon","coordinates":[[[473889.5411,7719947.1763],[473886.726,7719939.5591],[473808.489,7719984.7231],[473812.495,7719991.6631],[473889.5029,7719947.2078],[473889.544,7719947.1841],[473889.5411,7719947.1763]]]},"properties":{"FID":3,"Lease":"Common User Track","Owner":"Development WA","Area":718.92862045,"Notes":" ","Shape__Area":718.364990234375,"Shape__Length":195.44540562969286}},{"type":"Feature","id":4,"geometry":{"type":"Polygon","coordinates":[[[474488.0346,7720315.4783],[474072.096,7719833.0091],[474066.095,7719836.0121],[473886.726,7719939.5591],[473889.5411,7719947.1763],[473889.544,7719947.1841],[473898.5904,7719941.9612],[474046.547,7719856.5491],[474053.162,7719852.7301],[474063.626,7719849.6981],[474074.353,7719851.6051],[474083.131,7719858.0571],[474480.0019,7720318.4115],[474481.9747,7720317.6911],[474486.0624,7720316.1985],[474488.0346,7720315.4783]]]},"properties":{"FID":4,"Lease":"CV01","Owner":"Development WA","Area":6847.30876883,"Notes":" ","Shape__Area":6841.945068359375,"Shape__Length":1696.9301813955549}},{"type":"Feature","id":5,"geometry":{"type":"Polygon","coordinates":[[[473904.928,7719960.2131],[473901.59,7719950.6],[473892.639,7719955.7671],[473892.64,7719955.77],[473896.117,7719965.2991],[473904.928,7719960.2131]]]},"properties":{"FID":5,"Lease":"CV00","Owner":"Development WA","Area":102.557272604,"Notes":" ","Shape__Area":102.485595703125,"Shape__Length":40.83173855506067}},{"type":"Feature","id":6,"geometry":{"type":"Polygon","coordinates":[[[474480.0019,7720318.4115],[474083.131,7719858.0571],[474074.353,7719851.6051],[474063.626,7719849.6981],[474053.162,7719852.7301],[474046.547,7719856.5491],[474052.055,7719857.9861],[474054.741,7719856.4361],[474063.844,7719853.7981],[474072.736,7719855.3781],[474080.399,7719861.0101],[474474.6148,7720318.2875],[474475.9858,7720319.878],[474480.0019,7720318.4115]]]},"properties":{"FID":6,"Lease":"Common User Track","Owner":"Development WA","Area":2571.12591845,"Notes":" ","Shape__Area":2569.1044921875,"Shape__Length":1295.0649802580865}},{"type":"Feature","id":7,"geometry":{"type":"Polygon","coordinates":[[[474488.0346,7720315.4783],[474486.0624,7720316.1985],[474481.9747,7720317.6911],[474480.0019,7720318.4115],[474527.32,7720373.3171],[474559.2213,7720354.3862],[474592.4767,7720325.3532],[474529.002,7720363.0201],[474488.0346,7720315.4783]]]},"properties":{"FID":7,"Lease":"CV02","Owner":"Development WA","Area":985.032357699,"Notes":" ","Shape__Area":984.259765625,"Shape__Length":298.8417820108473}},{"type":"Feature","id":8,"geometry":{"type":"Polygon","coordinates":[[[474559.2213,7720354.3862],[474527.32,7720373.3171],[474480.0019,7720318.4115],[474475.9858,7720319.878],[474477.357,7720321.4688],[474526.48,7720378.4651],[474542.5918,7720368.9043],[474544.1729,7720367.5239],[474557.6354,7720355.7705],[474559.2213,7720354.3862]]]},"properties":{"FID":8,"Lease":"Common User Track","Owner":"Development WA","Area":411.468055393,"Notes":" ","Shape__Area":411.14501953125,"Shape__Length":232.0071376630209}},{"type":"Feature","id":9,"geometry":{"type":"Polygon","coordinates":[[[474765.3592,7720222.7244],[474592.4767,7720325.3532],[474559.2213,7720354.3862],[474770.7759,7720228.8144],[474765.3592,7720222.7244]]]},"properties":{"FID":9,"Lease":"CV03","Owner":"Development WA","Area":1788.84335727,"Notes":" ","Shape__Area":1787.444091796875,"Shape__Length":499.36133070702226}},{"type":"Feature","id":10,"geometry":{"type":"Polygon","coordinates":[[[474542.5918,7720368.9043],[474773.4832,7720231.8582],[474770.7759,7720228.8144],[474559.2213,7720354.3862],[474542.5918,7720368.9043]]]},"properties":{"FID":10,"Lease":"Common User Track","Owner":"Development WA","Area":1029.30110991,"Notes":" ","Shape__Area":1028.493408203125,"Shape__Length":540.6647331284587}},{"type":"Feature","id":11,"geometry":{"type":"Polygon","coordinates":[[[474765.3592,7720222.7244],[474770.7759,7720228.8144],[474823.0356,7720197.8014],[474817.6236,7720191.7108],[474765.3592,7720222.7244]]]},"properties":{"FID":11,"Lease":"CV04","Owner":"Development WA","Area":486.591222713,"Notes":" ","Shape__Area":486.208251953125,"Shape__Length":137.8406211287149}},{"type":"Feature","id":12,"geometry":{"type":"Polygon","coordinates":[[[474773.4832,7720231.8582],[474825.742,7720200.8471],[474823.0356,7720197.8014],[474770.7759,7720228.8144],[474773.4832,7720231.8582]]]},"properties":{"FID":12,"Lease":"Common User Track","Owner":"Development WA","Area":243.253477881,"Notes":" ","Shape__Area":243.061279296875,"Shape__Length":129.6844540699273}},{"type":"Feature","id":13,"geometry":{"type":"Polygon","coordinates":[[[474823.0356,7720197.8014],[475839.6701,7719594.5685],[475838.6382,7719585.8626],[474817.6236,7720191.7108],[474823.0356,7720197.8014]]]},"properties":{"FID":13,"Lease":"CV05","Owner":"Development WA","Area":9492.807375,"Notes":" ","Shape__Area":9485.318115234375,"Shape__Length":2386.2796467244093}},{"type":"Feature","id":14,"geometry":{"type":"Polygon","coordinates":[[[474825.742,7720200.8471],[475840.1933,7719598.8851],[475839.6701,7719594.5685],[474823.0356,7720197.8014],[474825.742,7720200.8471]]]},"properties":{"FID":14,"Lease":"Common User Track","Owner":"Development WA","Area":4715.14990746,"Notes":" ","Shape__Area":4711.440185546875,"Shape__Length":2370.160165013156}},{"type":"Feature","id":15,"geometry":{"type":"Polygon","coordinates":[[[475963.8648,7719474.9142],[476102.2022,7719012.4793],[476101.5854,7718986.7348],[475959.3534,7719462.0812],[475963.8648,7719474.9142]]]},"properties":{"FID":15,"Lease":"CV08","Owner":"Development WA","Area":3911.25713873,"Notes":" ","Shape__Area":3908.19873046875,"Shape__Length":1018.2076553317522}},{"type":"Feature","id":16,"geometry":{"type":"Polygon","coordinates":[[[475966.1203,7719481.3304],[476102.5149,7719025.5343],[476102.2022,7719012.4793],[475963.8648,7719474.9142],[475966.1203,7719481.3304]]]},"properties":{"FID":16,"Lease":"Common User Track","Owner":"Development WA","Area":1928.4325126,"Notes":" ","Shape__Area":1926.890380859375,"Shape__Length":978.3095482188505}},{"type":"Feature","id":17,"geometry":{"type":"Polygon","coordinates":[[[475940.403,7719525.4851],[475867.1119,7719568.9729],[475870.9893,7719575.9783],[475947.172,7719530.7711],[475963.8648,7719474.9142],[475959.3534,7719462.0812],[475940.403,7719525.4851]]]},"properties":{"FID":17,"Lease":"CV07","Owner":"Development WA","Area":1194.10298045,"Notes":" ","Shape__Area":1193.1630859375,"Shape__Length":319.8909450937454}},{"type":"Feature","id":18,"geometry":{"type":"Polygon","coordinates":[[[475870.9893,7719575.9783],[475872.9258,7719579.477],[475950.554,7719533.4121],[475966.1203,7719481.3304],[475963.8648,7719474.9142],[475947.172,7719530.7711],[475870.9893,7719575.9783]]]},"properties":{"FID":18,"Lease":"Common User Track","Owner":"Development WA","Area":583.074400309,"Notes":" ","Shape__Area":582.616455078125,"Shape__Length":302.30901789520067}},{"type":"Feature","id":19,"geometry":{"type":"Polygon","coordinates":[[[475872.9258,7719579.477],[475866.773,7719568.3605],[475866.6711,7719568.38],[475868.3639,7719582.1365],[475872.9258,7719579.477]]]},"properties":{"FID":19,"Lease":"CV06","Owner":"Development WA","Area":34.2820749544,"Notes":" ","Shape__Area":34.255615234375,"Shape__Length":31.950178357927456}},{"type":"Feature","id":20,"geometry":{"type":"Polygon","coordinates":[[[473908.9764,7719992.5047],[473912.9764,7719991.5047],[473902.9764,7719961.5047],[473898.9764,7719963.5047],[473908.9764,7719992.5047]]]},"properties":{"FID":20,"Lease":"Conveyor Overhead Crossing","Owner":"Pilbara Ports Authority","Area":133.104222111,"Notes":" ","Shape__Area":132.99951171875,"Shape__Length":70.89374148265696}},{"type":"Feature","id":21,"geometry":{"type":"Polygon","coordinates":[[[476896.8936,7718722.1959],[476896.8936,7719138.7354],[476893.9618,7719138.7354],[476893.9618,7719166.9304],[476908.819,7719166.9304],[476908.9515,7718701.615],[476098.5921,7718701.615],[476098.5921,7718701.615],[476096.04,7718711.46],[475977.5189,7718767.932],[475976.586,7718775.0015],[475976.586,7718775.0015],[476088.1471,7718721.9889],[476896.8936,7718721.9889],[476896.8936,7718722.1959]]]},"properties":{"FID":21,"Lease":"Gas Pipeline Lateral Easement","Owner":"Santos","Area":22796.6794585,"Notes":"Easement from Landgate Deposited Plan 51732 (20/09/2019)","Shape__Area":22778.759033203125,"Shape__Length":2819.2563017138073}},{"type":"Feature","id":22,"geometry":{"type":"Polygon","coordinates":[[[475325.1064,7719469.5347],[475328.6964,7719460.3247],[475227.5464,7719376.6147],[475160.6764,7719335.9547],[475141.4364,7719337.3547],[475095.4064,7719391.8147],[475082.9264,7719394.7447],[475084.1864,7719405.5547],[475079.6464,7719404.1547],[475063.5464,7719403.8047],[475058.8664,7719416.0847],[475101.7564,7719440.9747],[475108.3064,7719443.6247],[475114.6564,7719443.2747],[475149.5164,7719426.9547],[475180.7564,7719432.8847],[475189.6864,7719430.0247],[475192.1264,7719421.1047],[475245.8864,7719437.2747],[475261.2264,7719446.1347],[475325.1064,7719469.5347]]]},"properties":{"FID":22,"Lease":"LA30","Owner":"Pilbara Ports Authority","Area":14281.8030749,"Notes":" ","Shape__Area":14270.59765625,"Shape__Length":661.5516464665517}},{"type":"Feature","id":23,"geometry":{"type":"Polygon","coordinates":[[[475307.9764,7718995.5047],[475302.9764,7719008.5047],[475224.9764,7719187.5047],[475261.9764,7719304.5047],[475218.9764,7719323.5047],[475406.9764,7719463.5047],[475404.9764,7719437.5047],[475439.9764,7719387.5047],[475468.9764,7719309.5047],[475488.9764,7719273.5047],[475500.9764,7719231.5047],[475512.9764,7719218.5047],[475356.9764,7719064.5047],[475359.9764,7719059.5047],[475355.9764,7719041.5047],[475347.9764,7719022.5047],[475328.9764,7719006.5047],[475307.9764,7718995.5047]]]},"properties":{"FID":23,"Lease":"LA44","Owner":"Pilbara Ports Authority","Area":74543.0034534,"Notes":" ","Shape__Area":74484.50048828125,"Shape__Length":1198.8280905642878}},{"type":"Feature","id":24,"geometry":{"type":"MultiPolygon","coordinates":[[[[475957.6413,7718613.0597],[475951.127,7718540.9544],[475940.259,7718469.289],[475921.0215,7718399.4532],[475897.5703,7718330.8872],[475867.6296,7718265.0806],[475850.8658,7718230.8875],[475788.1644,7718144.4751],[475768.1353,7718121.8997],[475741.3363,7718143.6153],[475725.3311,7718155.5828],[475728.5882,7718160.6318],[475745.0304,7718148.3643],[475767.5168,7718130.208],[475783.6127,7718148.3143],[475845.539,7718234.1769],[475861.9812,7718267.86],[475891.6498,7718333.3467],[475915.0267,7718401.4128],[475934.1901,7718470.6887],[475945.0416,7718541.7942],[475951.5641,7718613.3497],[475949.7582,7718684.9151],[475943.9697,7718750.7017],[475946.5918,7718749.452],[475950.253,7718747.7023],[475955.7777,7718685.185],[475957.6413,7718613.0597]]],[[[476017.1103,7719667.2951],[475942.5184,7719497.0798],[475934.3797,7719474.7543],[475905.9728,7719357.8981],[475890.5448,7719307.9083],[475879.7675,7719232.5236],[475881.7135,7719181.2641],[475885.4077,7719111.4683],[475889.8027,7719080.5946],[475892.6228,7719069.5168],[475897.4796,7719060.7086],[475902.0725,7719054.3099],[475905.8739,7719046.7315],[475908.8341,7719034.7339],[475923.5694,7718927.3558],[475929.2508,7718891.933],[475939.3932,7718844.8525],[475943.5986,7718817.3182],[475946.9382,7718782.5052],[475943.4007,7718784.1949],[475940.6136,7718785.5146],[475937.6451,7718816.5883],[475933.4892,7718843.7728],[475923.3468,7718890.8332],[475917.6324,7718926.4859],[475902.9301,7719033.6141],[475900.209,7719044.6519],[475896.9189,7719051.2105],[475892.3919,7719057.5193],[475886.9909,7719067.3073],[475883.8987,7719079.4448],[475879.4212,7719110.9084],[475875.7188,7719181.0141],[475873.748,7719232.8536],[475884.6738,7719309.248],[475900.1842,7719359.5178],[475928.6324,7719476.504],[475936.9524,7719499.3293],[476011.4124,7719669.7246],[476017.1103,7719667.2951]]]]},"properties":{"FID":24,"Lease":"Bunbury Extension Pipeline","Owner":"DBNGP","Area":9958.52263853,"Notes":"Extension of DBNGP","Shape__Area":9950.69873046875,"Shape__Length":3298.5160293999234}},{"type":"Feature","id":25,"geometry":{"type":"Polygon","coordinates":[[[476631.7504,7718692.0359],[476149.0236,7718691.9284],[476101.3228,7718691.9192],[476098.5126,7718701.9147],[476104.0857,7718701.9158],[476149.0215,7718701.9245],[476258.3781,7718701.95],[476310.3408,7718701.9619],[476327.5948,7718701.9659],[476494.1801,7718702.0027],[476515.0044,7718702.0073],[476631.7791,7718702.032],[476631.7504,7718692.0359]]]},"properties":{"FID":25,"Lease":"AGIG Pipeline Easement","Owner":"AGIG","Area":5321.087007,"Notes":"New gas tie-in and metering station","Shape__Area":5316.904052734375,"Shape__Length":1084.0732937322805}},{"type":"Feature","id":26,"geometry":{"type":"Polygon","coordinates":[[[473839.9764,7720233.5047],[473854.0016,7720233.9475],[473975.3364,7720237.6917],[473985.2598,7720236.7587],[473993.1084,7720236.0207],[474051.1881,7720230.5766],[474031.9711,7720168.3986],[474055.1364,7720137.6187],[473972.4924,7719964.5747],[473965.0504,7719965.4117],[473949.1524,7719969.1037],[473947.7674,7719968.4177],[473938.1404,7719971.6617],[473916.0064,7719976.8017],[473914.4054,7719972.4857],[473912.0411,7719973.3009],[473910.4168,7719961.4621],[473909.0472,7719957.8312],[473897.8908,7719964.2716],[473894.8443,7719966.0303],[473896.1809,7719969.6891],[473903.018,7719978.1281],[473880.7352,7719990.9824],[473868.2737,7719995.2168],[473866.2573,7719999.3706],[473859.4419,7720003.2825],[473884.8673,7720082.991],[473907.4068,7720158.3311],[473919.473,7720172.3662],[473920.9223,7720189.8208],[473913.6128,7720193.9796],[473909.7701,7720200.1928],[473905.5218,7720206.1568],[473839.9764,7720213.5047],[473839.9764,7720233.5047]]]},"properties":{"FID":26,"Lease":"Area 472","Owner":"Pilbara Ports Authority","Area":37106.9801329,"Notes":" ","Shape__Area":37077.922607421875,"Shape__Length":977.9901310156561}}]}