{"type":"FeatureCollection","name":"Proposal Development Envelope","crs_epsg":28350,"source":"https://services-ap1.arcgis.com/oOhFjgN0cUEZBHqy/arcgis/rest/services/PR25_BDY_ProjectBoundaries/FeatureServer/3","geometryType":"esriGeometryPolygon","features":[{"type":"Feature","id":1,"geometry":{"type":"Polygon","coordinates":[[[473818.3551,7720208.57],[473816.1321,7720475.7734],[473846.091,7720475.7734],[473847.1442,7720249.7593],[474097.4422,7720226.219],[473972.4866,7719964.5664],[473920.9671,7719965.7715],[473914.2433,7719954.8311],[474047.9595,7719875.2079],[474515.1279,7720410.3373],[474524.6018,7720412.701],[474811.3851,7720243.4338],[474877.7047,7720319.14],[474894.9458,7720306.9698],[474834.8537,7720229.5816],[475926.0745,7719585.4362],[475916.2592,7719567.1287],[475985.1019,7719528.1749],[476003.607,7719517.3052],[476166.8922,7719253.5082],[476351.2455,7719380.3845],[476450.8959,7719276.2854],[476333.4507,7719192.6502],[476344.9185,7719059.03],[476553.0302,7719022.7486],[476859.0902,7719406.6362],[476859.028,7718742.0801],[476738.3221,7718741.9504],[476738.3221,7718428.8817],[476871.2019,7718488.6219],[476885.005,7718491.6609],[476885.2098,7718450.768],[476792.2813,7718410.3474],[476788.6396,7718226.0411],[476886.2837,7718226.2659],[476887.5331,7717985.8202],[476837.8817,7717951.2976],[476055.2606,7717891.8025],[475917.4353,7718033.7361],[475950.5584,7718235.9532],[475885.2164,7718262.1359],[475830.6553,7718254.0871],[475872.1336,7718347.625],[475909.7317,7718291.8811],[475936.9184,7718282.5924],[475973.2038,7718267.1433],[476026.6028,7718244.8719],[476037.0132,7718240.914],[476047.6542,7718237.6264],[476058.4829,7718235.0222],[476069.4552,7718233.1121],[476080.5268,7718231.9039],[476091.6529,7718231.4023],[476102.7883,7718231.6095],[476113.888,7718232.5246],[476124.907,7718234.1439],[476135.8007,7718236.4609],[476146.5249,7718239.466],[476157.0363,7718243.1473],[476167.2922,7718247.4897],[476177.2511,7718252.4758],[476224.8158,7718278.214],[476237.9573,7718284.932],[476251.3991,7718291.027],[476298.5029,7718309.5246],[476328.4393,7718317.4018],[476426.8398,7718343.2943],[476629.8851,7718396.7235],[476630.4357,7718743.3449],[476199.9991,7718741.1213],[476199.9996,7718721.989],[476120.2239,7718721.9889],[476091.9118,7718730.8862],[475980.5443,7718786.1817],[475958.7732,7718786.1817],[475941.0264,7718760.2444],[475923.5176,7718747.2991],[475909.1997,7718839.7241],[475923.1579,7718831.5886],[475924.1184,7718816.0489],[475943.0115,7718816.0489],[475943.0115,7718831.5886],[475972.5188,7718831.5886],[476084.79,7718789],[476126,7718789],[476099.3857,7718892.7197],[476100.9584,7718941.8947],[476016.484,7718967.1886],[475970.7422,7718970.1136],[475923.7783,7718961.4129],[475895.0625,7718949.836],[475872.7238,7719095.5575],[475867.7829,7719311.1932],[475929.5227,7719531.9413],[474799.9443,7720202.2563],[474736.9318,7720122.9288],[474719.6933,7720133.3566],[474779.0772,7720214.6381],[474529.002,7720363.02],[474072.0963,7719833.0088],[473839.6914,7719955.5356],[473908.7541,7720162.8235],[473818.3551,7720208.57]]]},"properties":{"OBJECTID":1,"Layer":"PROPOSAL DEVELOPMENT AREA","Area_ha":106.225085657,"Shape__Area":1060278.5239257812,"Shape__Length":15354.896909460449}}]}